[{"OBJECT_NAME":"STARLINK-4636","OBJECT_ID":"2022-107AH","EPOCH":"2026-03-09T21:32:58.902144","MEAN_MOTION":15.11900784,"ECCENTRICITY":0.00053969,"INCLINATION":53.213,"RA_OF_ASC_NODE":252.5823,"ARG_OF_PERICENTER":143.7657,"MEAN_ANOMALY":216.3703,"EPHEMERIS_TYPE":0,"CLASSIFICATION_TYPE":"U","NORAD_CAT_ID":53731,"ELEMENT_SET_NO":999,"REV_AT_EPOCH":19462,"BSTAR":0.0016595438,"MEAN_MOTION_DOT":0.00028566,"MEAN_MOTION_DDOT":0},{"OBJECT_NAME":"TITAN 3C TRANSTAGE DEB","OBJECT_ID":"1965-082EA","EPOCH":"2026-03-09T23:10:17.723424","MEAN_MOTION":15.08375165,"ECCENTRICITY":0.00122709,"INCLINATION":32.3951,"RA_OF_ASC_NODE":291.2548,"ARG_OF_PERICENTER":351.0252,"MEAN_ANOMALY":9.0191,"EPHEMERIS_TYPE":0,"CLASSIFICATION_TYPE":"U","NORAD_CAT_ID":1835,"ELEMENT_SET_NO":999,"REV_AT_EPOCH":23237,"BSTAR":0.00035954995,"MEAN_MOTION_DOT":5.778e-5,"MEAN_MOTION_DDOT":0}]
